{
  "type": "FeatureCollection",
  "features": [
    {
      "type": "Feature",
      "properties": {
        "norad_id": 38250,
        "name": "BEIDOU-2 M3 (C11)",
        "group": "beidou",
        "lat": -22.41027205833588,
        "lon": 147.08455089430737,
        "alt_km": 21505.359828910834,
        "timestamp": "2025-12-20T03:42:47.658156+00:00",
        "meta_object_name": "BEIDOU-2 M3 (C11)",
        "meta_object_id": "2012-018A",
        "meta_epoch": "2025-12-19T07:23:03.381792",
        "meta_mean_motion": 1.86230015,
        "meta_eccentricity": 0.0024195,
        "meta_inclination": 55.9145,
        "meta_ra_of_asc_node": 310.9364,
        "meta_arg_of_pericenter": 274.9131,
        "meta_mean_anomaly": 84.7979,
        "meta_ephemeris_type": 0,
        "meta_classification_type": "U",
        "meta_norad_cat_id": 38250,
        "meta_element_set_no": 999,
        "meta_rev_at_epoch": 9259,
        "meta_bstar": 0,
        "meta_mean_motion_dot": -7.8e-07,
        "meta_mean_motion_ddot": 0,
        "tle_line1": "1 38250U 12018A   25353.30767803 -.00000078  00000+0  00000+0 0  9996",
        "tle_line2": "2 38250  55.9145 310.9364 0024195 274.9131  84.7979  1.86230015 92598"
      },
      "geometry": {
        "type": "Point",
        "coordinates": [
          147.08455089430737,
          -22.41027205833588
        ]
      }
    },
    {
      "type": "Feature",
      "properties": {
        "norad_id": 38251,
        "name": "BEIDOU-2 M4 (C12)",
        "group": "beidou",
        "lat": -52.3788423686788,
        "lon": -168.11211823780536,
        "alt_km": 21495.04337559358,
        "timestamp": "2025-12-20T03:42:47.658168+00:00",
        "meta_object_name": "BEIDOU-2 M4 (C12)",
        "meta_object_id": "2012-018B",
        "meta_epoch": "2025-12-19T05:45:13.599936",
        "meta_mean_motion": 1.86229684,
        "meta_eccentricity": 0.00153935,
        "meta_inclination": 55.8157,
        "meta_ra_of_asc_node": 310.167,
        "meta_arg_of_pericenter": 278.4783,
        "meta_mean_anomaly": 81.3347,
        "meta_ephemeris_type": 0,
        "meta_classification_type": "U",
        "meta_norad_cat_id": 38251,
        "meta_element_set_no": 999,
        "meta_rev_at_epoch": 9259,
        "meta_bstar": 0,
        "meta_mean_motion_dot": -7.8e-07,
        "meta_mean_motion_ddot": 0,
        "tle_line1": "1 38251U 12018B   25353.23974074 -.00000078  00000+0  00000+0 0  9999",
        "tle_line2": "2 38251  55.8157 310.1670 0015393 278.4783  81.3347  1.86229684 92597"
      },
      "geometry": {
        "type": "Point",
        "coordinates": [
          -168.11211823780536,
          -52.3788423686788
        ]
      }
    },
    {
      "type": "Feature",
      "properties": {
        "norad_id": 38775,
        "name": "BEIDOU-2 M6 (C14)",
        "group": "beidou",
        "lat": 56.319208136912465,
        "lon": 154.13482468119454,
        "alt_km": 21529.018852169436,
        "timestamp": "2025-12-20T03:42:47.658179+00:00",
        "meta_object_name": "BEIDOU-2 M6 (C14)",
        "meta_object_id": "2012-050B",
        "meta_epoch": "2025-12-19T11:42:06.639840",
        "meta_mean_motion": 1.86230927,
        "meta_eccentricity": 0.0011333,
        "meta_inclination": 56.384,
        "meta_ra_of_asc_node": 68.8435,
        "meta_arg_of_pericenter": 343.6526,
        "meta_mean_anomaly": 16.3469,
        "meta_ephemeris_type": 0,
        "meta_classification_type": "U",
        "meta_norad_cat_id": 38775,
        "meta_element_set_no": 999,
        "meta_rev_at_epoch": 8996,
        "meta_bstar": 0,
        "meta_mean_motion_dot": -5.2e-07,
        "meta_mean_motion_ddot": 0,
        "tle_line1": "1 38775U 12050B   25353.48757685 -.00000052  00000+0  00000+0 0  9992",
        "tle_line2": "2 38775  56.3840  68.8435 0011333 343.6526  16.3469  1.86230927 89961"
      },
      "geometry": {
        "type": "Point",
        "coordinates": [
          154.13482468119454,
          56.319208136912465
        ]
      }
    },
    {
      "type": "Feature",
      "properties": {
        "norad_id": 38953,
        "name": "BEIDOU-2 G6 (C02)",
        "group": "beidou",
        "lat": 1.7719044509496022,
        "lon": -131.36828242420646,
        "alt_km": 35812.74866440381,
        "timestamp": "2025-12-20T03:42:47.658190+00:00",
        "meta_object_name": "BEIDOU-2 G6 (C02)",
        "meta_object_id": "2012-059A",
        "meta_epoch": "2025-12-19T19:55:47.653824",
        "meta_mean_motion": 1.00269116,
        "meta_eccentricity": 0.0008226,
        "meta_inclination": 3.9664,
        "meta_ra_of_asc_node": 75.4373,
        "meta_arg_of_pericenter": 292.2624,
        "meta_mean_anomaly": 103.8748,
        "meta_ephemeris_type": 0,
        "meta_classification_type": "U",
        "meta_norad_cat_id": 38953,
        "meta_element_set_no": 999,
        "meta_rev_at_epoch": 4811,
        "meta_bstar": 0,
        "meta_mean_motion_dot": -1.53e-06,
        "meta_mean_motion_ddot": 0,
        "tle_line1": "1 38953U 12059A   25353.83041266 -.00000153  00000+0  00000+0 0  9991",
        "tle_line2": "2 38953   3.9664  75.4373 0008226 292.2624 103.8748  1.00269116 48113"
      },
      "geometry": {
        "type": "Point",
        "coordinates": [
          -131.36828242420646,
          1.7719044509496022
        ]
      }
    },
    {
      "type": "Feature",
      "properties": {
        "norad_id": 40549,
        "name": "BEIDOU-3S IGSO-1S (C31)",
        "group": "beidou",
        "lat": -40.21809866009945,
        "lon": -108.50919010740613,
        "alt_km": 35832.93918597888,
        "timestamp": "2025-12-20T03:42:47.658202+00:00",
        "meta_object_name": "BEIDOU-3S IGSO-1S (C31)",
        "meta_object_id": "2015-019A",
        "meta_epoch": "2025-12-18T19:55:38.829792",
        "meta_mean_motion": 1.00292047,
        "meta_eccentricity": 0.0036331,
        "meta_inclination": 49.5404,
        "meta_ra_of_asc_node": 297.6395,
        "meta_arg_of_pericenter": 194.0028,
        "meta_mean_anomaly": 349.3621,
        "meta_ephemeris_type": 0,
        "meta_classification_type": "U",
        "meta_norad_cat_id": 40549,
        "meta_element_set_no": 999,
        "meta_rev_at_epoch": 3926,
        "meta_bstar": 0,
        "meta_mean_motion_dot": -1.83e-06,
        "meta_mean_motion_ddot": 0,
        "tle_line1": "1 40549U 15019A   25352.83031053 -.00000183  00000+0  00000+0 0  9999",
        "tle_line2": "2 40549  49.5404 297.6395 0036331 194.0028 349.3621  1.00292047 39264"
      },
      "geometry": {
        "type": "Point",
        "coordinates": [
          -108.50919010740613,
          -40.21809866009945
        ]
      }
    },
    {
      "type": "Feature",
      "properties": {
        "norad_id": 40748,
        "name": "BEIDOU-3S M2S (C58)",
        "group": "beidou",
        "lat": 47.550923982741814,
        "lon": 78.3329626177475,
        "alt_km": 21552.91923972659,
        "timestamp": "2025-12-20T03:42:47.658214+00:00",
        "meta_object_name": "BEIDOU-3S M2S (C58)",
        "meta_object_id": "2015-037A",
        "meta_epoch": "2025-12-19T10:40:29.956224",
        "meta_mean_motion": 1.86229497,
        "meta_eccentricity": 0.0012208,
        "meta_inclination": 55.0326,
        "meta_ra_of_asc_node": 308.2324,
        "meta_arg_of_pericenter": 268.7411,
        "meta_mean_anomaly": 91.1083,
        "meta_ephemeris_type": 0,
        "meta_classification_type": "U",
        "meta_norad_cat_id": 40748,
        "meta_element_set_no": 999,
        "meta_rev_at_epoch": 7077,
        "meta_bstar": 0,
        "meta_mean_motion_dot": -7.6e-07,
        "meta_mean_motion_ddot": 0,
        "tle_line1": "1 40748U 15037A   25353.44479116 -.00000076  00000+0  00000+0 0  9995",
        "tle_line2": "2 40748  55.0326 308.2324 0012208 268.7411  91.1083  1.86229497 70771"
      },
      "geometry": {
        "type": "Point",
        "coordinates": [
          78.3329626177475,
          47.550923982741814
        ]
      }
    },
    {
      "type": "Feature",
      "properties": {
        "norad_id": 40749,
        "name": "BEIDOU-3S M1S (C57)",
        "group": "beidou",
        "lat": -30.102550838003616,
        "lon": -75.74050124474256,
        "alt_km": 21521.67191251845,
        "timestamp": "2025-12-20T03:42:47.658225+00:00",
        "meta_object_name": "BEIDOU-3S M1S (C57)",
        "meta_object_id": "2015-037B",
        "meta_epoch": "2025-12-19T03:17:32.841888",
        "meta_mean_motion": 1.86254044,
        "meta_eccentricity": 0.0003631,
        "meta_inclination": 55.0296,
        "meta_ra_of_asc_node": 308.2337,
        "meta_arg_of_pericenter": 1.0538,
        "meta_mean_anomaly": 358.9355,
        "meta_ephemeris_type": 0,
        "meta_classification_type": "U",
        "meta_norad_cat_id": 40749,
        "meta_element_set_no": 999,
        "meta_rev_at_epoch": 7077,
        "meta_bstar": 0,
        "meta_mean_motion_dot": -7.8e-07,
        "meta_mean_motion_ddot": 0,
        "tle_line1": "1 40749U 15037B   25353.13718567 -.00000078  00000+0  00000+0 0  9990",
        "tle_line2": "2 40749  55.0296 308.2337 0003631   1.0538 358.9355  1.86254044 70772"
      },
      "geometry": {
        "type": "Point",
        "coordinates": [
          -75.74050124474256,
          -30.102550838003616
        ]
      }
    }
  ]
}